start=new Date('2022-07-29T00:00:00.000Z').valueOf();
sats=[{"MEAN_ANOMALY":"286.3641","ARG_OF_PERICENTER":"73.7490","CENTER_NAME":"EARTH","TLE_LINE1":"1 48438U 21040L   22209.65075526  .00000752  00000-0  69353-4 0  9999","MEAN_ELEMENT_THEORY":"SGP4","RCS_SIZE":"LARGE","FILE":"3524113","CLASSIFICATION_TYPE":"U","REF_FRAME":"TEME","TLE_LINE2":"2 48438  53.0553 347.5008 0001289  73.7490 286.3641 15.06404859 67664","MEAN_MOTION_DOT":"0.00000752","OBJECT_TYPE":"PAYLOAD","LAUNCH_DATE":"2021-05-09","SEMIMAJOR_AXIS":"6925.334","INCLINATION":"53.0553","COUNTRY_CODE":"US","ECCENTRICITY":"0.00012890","DECAY_DATE":null,"TIME_SYSTEM":"UTC","PERIOD":"95.592","EPHEMERIS_TYPE":"0","MEAN_MOTION":"15.06404859","PERIAPSIS":"546.306","RA_OF_ASC_NODE":"347.5008","ELEMENT_SET_NO":"999","NORAD_CAT_ID":"48438","GP_ID":"209065833","REV_AT_EPOCH":"6766","MEAN_MOTION_DDOT":"0.0000000000000","SITE":"AFETR","EPOCH":"2022-07-28T15:37:05.254464","BSTAR":"0.00006935300000","APOAPSIS":"548.091","OBJECT_ID":"2021-040L","OBJECT_NAME":"STARLINK-2640"},{"PERIOD":"95.592","EPHEMERIS_TYPE":"0","RA_OF_ASC_NODE":"346.6291","MEAN_MOTION":"15.06396177","PERIAPSIS":"546.350","ELEMENT_SET_NO":"999","GP_ID":"209066084","NORAD_CAT_ID":"48439","MEAN_MOTION_DDOT":"0.0000000000000","REV_AT_EPOCH":"6769","EPOCH":"2022-07-28T20:18:24.062976","SITE":"AFETR","BSTAR":"0.00000112630000","APOAPSIS":"548.101","OBJECT_NAME":"STARLINK-2583","OBJECT_ID":"2021-040M","CENTER_NAME":"EARTH","MEAN_ANOMALY":"273.3315","ARG_OF_PERICENTER":"86.7819","RCS_SIZE":"MEDIUM","TLE_LINE1":"1 48439U 21040M   22209.84611184 -.00000265  00000-0  11263-5 0  9995","MEAN_ELEMENT_THEORY":"SGP4","REF_FRAME":"TEME","TLE_LINE2":"2 48439  53.0546 346.6291 0001264  86.7819 273.3315 15.06396177 67693","CLASSIFICATION_TYPE":"U","FILE":"3524113","LAUNCH_DATE":"2021-05-09","OBJECT_TYPE":"PAYLOAD","SEMIMAJOR_AXIS":"6925.360","MEAN_MOTION_DOT":"-0.00000265","ECCENTRICITY":"0.00012640","COUNTRY_CODE":"US","TIME_SYSTEM":"UTC","DECAY_DATE":null,"INCLINATION":"53.0546"},{"TLE_LINE1":"1 48440U 21040N   22209.64339088 -.00000028  00000-0  17017-4 0  9994","MEAN_ELEMENT_THEORY":"SGP4","RCS_SIZE":"LARGE","MEAN_ANOMALY":"272.8824","ARG_OF_PERICENTER":"87.2327","CENTER_NAME":"EARTH","INCLINATION":"53.0556","COUNTRY_CODE":"US","ECCENTRICITY":"0.00014190","TIME_SYSTEM":"UTC","DECAY_DATE":null,"FILE":"3524113","CLASSIFICATION_TYPE":"U","REF_FRAME":"TEME","TLE_LINE2":"2 48440  53.0556 347.5393 0001419  87.2327 272.8824 15.06405405 67662","MEAN_MOTION_DOT":"-0.00000028","OBJECT_TYPE":"PAYLOAD","LAUNCH_DATE":"2021-05-09","SEMIMAJOR_AXIS":"6925.332","ELEMENT_SET_NO":"999","GP_ID":"209066332","NORAD_CAT_ID":"48440","PERIOD":"95.592","EPHEMERIS_TYPE":"0","MEAN_MOTION":"15.06405405","PERIAPSIS":"546.214","RA_OF_ASC_NODE":"347.5393","BSTAR":"0.00001701700000","APOAPSIS":"548.180","OBJECT_NAME":"STARLINK-2682","OBJECT_ID":"2021-040N","REV_AT_EPOCH":"6766","MEAN_MOTION_DDOT":"0.0000000000000","SITE":"AFETR","EPOCH":"2022-07-28T15:26:28.972032"},{"ARG_OF_PERICENTER":"74.6034","MEAN_ANOMALY":"285.5107","CENTER_NAME":"EARTH","MEAN_ELEMENT_THEORY":"SGP4","TLE_LINE1":"1 48441U 21040P   22209.83871971  .00003723  00000-0  26856-3 0  9992","RCS_SIZE":"LARGE","MEAN_MOTION_DOT":"0.00003723","SEMIMAJOR_AXIS":"6925.284","LAUNCH_DATE":"2021-05-09","OBJECT_TYPE":"PAYLOAD","FILE":"3524113","CLASSIFICATION_TYPE":"U","TLE_LINE2":"2 48441  53.0543 346.6604 0001383  74.6034 285.5107 15.06421189 67694","REF_FRAME":"TEME","INCLINATION":"53.0543","TIME_SYSTEM":"UTC","DECAY_DATE":null,"COUNTRY_CODE":"US","ECCENTRICITY":"0.00013830","MEAN_MOTION":"15.06421189","PERIAPSIS":"546.191","RA_OF_ASC_NODE":"346.6604","EPHEMERIS_TYPE":"0","PERIOD":"95.591","NORAD_CAT_ID":"48441","GP_ID":"209065082","ELEMENT_SET_NO":"999","SITE":"AFETR","EPOCH":"2022-07-28T20:07:45.382944","REV_AT_EPOCH":"6769","MEAN_MOTION_DDOT":"0.0000000000000","OBJECT_NAME":"STARLINK-2702","OBJECT_ID":"2021-040P","APOAPSIS":"548.106","BSTAR":"0.00026856000000"},{"CENTER_NAME":"EARTH","MEAN_ANOMALY":"271.8275","ARG_OF_PERICENTER":"88.2858","RCS_SIZE":"LARGE","MEAN_ELEMENT_THEORY":"SGP4","TLE_LINE1":"1 48442U 21040Q   22209.83505326 -.00000251  00000-0  20449-5 0  9999","REF_FRAME":"TEME","TLE_LINE2":"2 48442  53.0577 346.6799 0001255  88.2858 271.8275 15.06401762 67699","CLASSIFICATION_TYPE":"U","FILE":"3524113","LAUNCH_DATE":"2021-05-09","OBJECT_TYPE":"PAYLOAD","SEMIMAJOR_AXIS":"6925.343","MEAN_MOTION_DOT":"-0.00000251","ECCENTRICITY":"0.00012550","COUNTRY_CODE":"US","DECAY_DATE":null,"TIME_SYSTEM":"UTC","INCLINATION":"53.0577","PERIOD":"95.592","EPHEMERIS_TYPE":"0","RA_OF_ASC_NODE":"346.6799","PERIAPSIS":"546.339","MEAN_MOTION":"15.06401762","ELEMENT_SET_NO":"999","GP_ID":"209065333","NORAD_CAT_ID":"48442","MEAN_MOTION_DDOT":"0.0000000000000","REV_AT_EPOCH":"6769","EPOCH":"2022-07-28T20:02:28.601664","SITE":"AFETR","BSTAR":"0.00000204490000","APOAPSIS":"548.077","OBJECT_NAME":"STARLINK-2644","OBJECT_ID":"2021-040Q"},{"MEAN_ELEMENT_THEORY":"SGP4","TLE_LINE1":"1 48443U 21040R   22209.69866447 -.00004842  00000-0 -30619-3 0  9997","RCS_SIZE":"LARGE","ARG_OF_PERICENTER":"107.9974","MEAN_ANOMALY":"252.1141","CENTER_NAME":"EARTH","INCLINATION":"53.0562","TIME_SYSTEM":"UTC","DECAY_DATE":null,"COUNTRY_CODE":"US","ECCENTRICITY":"0.00011600","MEAN_MOTION_DOT":"-0.00004842","SEMIMAJOR_AXIS":"6925.268","LAUNCH_DATE":"2021-05-09","OBJECT_TYPE":"PAYLOAD","FILE":"3524113","CLASSIFICATION_TYPE":"U","TLE_LINE2":"2 48443  53.0562 347.3004 0001160 107.9974 252.1141 15.06426173 67679","REF_FRAME":"TEME","GP_ID":"209066585","NORAD_CAT_ID":"48443","ELEMENT_SET_NO":"999","MEAN_MOTION":"15.06426173","PERIAPSIS":"546.330","RA_OF_ASC_NODE":"347.3004","EPHEMERIS_TYPE":"0","PERIOD":"95.590","OBJECT_NAME":"STARLINK-2663","OBJECT_ID":"2021-040R","APOAPSIS":"547.937","BSTAR":"-0.00030619000000","SITE":"AFETR","EPOCH":"2022-07-28T16:46:04.610208","REV_AT_EPOCH":"6767","MEAN_MOTION_DDOT":"0.0000000000000"},{"INCLINATION":"53.0563","TIME_SYSTEM":"UTC","DECAY_DATE":null,"ECCENTRICITY":"0.00014570","COUNTRY_CODE":"US","MEAN_MOTION_DOT":"0.00000787","SEMIMAJOR_AXIS":"6925.376","LAUNCH_DATE":"2021-05-09","OBJECT_TYPE":"PAYLOAD","FILE":"3524113","CLASSIFICATION_TYPE":"U","TLE_LINE2":"2 48444  53.0563 347.0136 0001457  82.7589 277.3566 15.06391206 67684","REF_FRAME":"TEME","TLE_LINE1":"1 48444U 21040S   22209.76134182  .00000787  00000-0  71754-4 0  9998","MEAN_ELEMENT_THEORY":"SGP4","RCS_SIZE":"LARGE","ARG_OF_PERICENTER":"82.7589","MEAN_ANOMALY":"277.3566","CENTER_NAME":"EARTH","OBJECT_NAME":"STARLINK-2645","OBJECT_ID":"2021-040S","APOAPSIS":"548.250","BSTAR":"0.00007175400000","SITE":"AFETR","EPOCH":"2022-07-28T18:16:19.933248","REV_AT_EPOCH":"6768","MEAN_MOTION_DDOT":"0.0000000000000","GP_ID":"209066833","NORAD_CAT_ID":"48444","ELEMENT_SET_NO":"999","PERIAPSIS":"546.231","MEAN_MOTION":"15.06391206","RA_OF_ASC_NODE":"347.0136","EPHEMERIS_TYPE":"0","PERIOD":"95.593"},{"MEAN_ELEMENT_THEORY":"SGP4","TLE_LINE1":"1 48445U 21040T   22209.82400112  .00000881  00000-0  77993-4 0  9991","RCS_SIZE":"LARGE","ARG_OF_PERICENTER":"75.2603","MEAN_ANOMALY":"284.8532","CENTER_NAME":"EARTH","INCLINATION":"53.0551","TIME_SYSTEM":"UTC","DECAY_DATE":null,"ECCENTRICITY":"0.00013160","COUNTRY_CODE":"US","FILE":"3524113","CLASSIFICATION_TYPE":"U","TLE_LINE2":"2 48445  53.0551 346.7388 0001316  75.2603 284.8532 15.06403962 67695","REF_FRAME":"TEME","MEAN_MOTION_DOT":"0.00000881","SEMIMAJOR_AXIS":"6925.336","LAUNCH_DATE":"2021-05-09","OBJECT_TYPE":"PAYLOAD","ELEMENT_SET_NO":"999","NORAD_CAT_ID":"48445","GP_ID":"209065583","EPHEMERIS_TYPE":"0","PERIOD":"95.592","MEAN_MOTION":"15.06403962","PERIAPSIS":"546.290","RA_OF_ASC_NODE":"346.7388","BSTAR":"0.00007799300000","OBJECT_ID":"2021-040T","OBJECT_NAME":"STARLINK-2634","APOAPSIS":"548.113","REV_AT_EPOCH":"6769","MEAN_MOTION_DDOT":"0.0000000000000","SITE":"AFETR","EPOCH":"2022-07-28T19:46:33.696768"},{"INCLINATION":"53.0574","ECCENTRICITY":"0.00013530","COUNTRY_CODE":"US","DECAY_DATE":null,"TIME_SYSTEM":"UTC","FILE":"3524113","CLASSIFICATION_TYPE":"U","REF_FRAME":"TEME","TLE_LINE2":"2 48446  53.0574 347.0566 0001353  75.4142 284.6997 15.06398714 67684","MEAN_MOTION_DOT":"0.00001382","LAUNCH_DATE":"2021-05-09","OBJECT_TYPE":"PAYLOAD","SEMIMAJOR_AXIS":"6925.352","MEAN_ELEMENT_THEORY":"SGP4","TLE_LINE1":"1 48446U 21040U   22209.75397012  .00001382  00000-0  11168-3 0  9996","RCS_SIZE":"LARGE","MEAN_ANOMALY":"284.6997","ARG_OF_PERICENTER":"75.4142","CENTER_NAME":"EARTH","BSTAR":"0.00011168000000","APOAPSIS":"548.154","OBJECT_NAME":"STARLINK-2247","OBJECT_ID":"2021-040U","REV_AT_EPOCH":"6768","MEAN_MOTION_DDOT":"0.0000000000000","SITE":"AFETR","EPOCH":"2022-07-28T18:05:43.018368","ELEMENT_SET_NO":"999","GP_ID":"209065834","NORAD_CAT_ID":"48446","PERIOD":"95.592","EPHEMERIS_TYPE":"0","MEAN_MOTION":"15.06398714","PERIAPSIS":"546.280","RA_OF_ASC_NODE":"347.0566"},{"CLASSIFICATION_TYPE":"U","FILE":"3524113","REF_FRAME":"TEME","TLE_LINE2":"2 48447  53.0557 347.6609 0001376  74.8633 285.2508 15.06402199 67669","MEAN_MOTION_DOT":"0.00001309","LAUNCH_DATE":"2021-05-09","OBJECT_TYPE":"PAYLOAD","SEMIMAJOR_AXIS":"6925.342","INCLINATION":"53.0557","ECCENTRICITY":"0.00013760","COUNTRY_CODE":"US","DECAY_DATE":null,"TIME_SYSTEM":"UTC","MEAN_ANOMALY":"285.2508","ARG_OF_PERICENTER":"74.8633","CENTER_NAME":"EARTH","TLE_LINE1":"1 48447U 21040V   22209.61758714  .00001309  00000-0  10672-3 0  9990","MEAN_ELEMENT_THEORY":"SGP4","RCS_SIZE":"LARGE","REV_AT_EPOCH":"6766","MEAN_MOTION_DDOT":"0.0000000000000","SITE":"AFETR","EPOCH":"2022-07-28T14:49:19.528896","BSTAR":"0.00010672000000","APOAPSIS":"548.160","OBJECT_ID":"2021-040V","OBJECT_NAME":"STARLINK-2269","PERIOD":"95.592","EPHEMERIS_TYPE":"0","PERIAPSIS":"546.254","MEAN_MOTION":"15.06402199","RA_OF_ASC_NODE":"347.6609","ELEMENT_SET_NO":"999","NORAD_CAT_ID":"48447","GP_ID":"209066085"}];
